OBJECT_NAME,OBJECT_ID,EPOCH,MEAN_MOTION,ECCENTRICITY,INCLINATION,RA_OF_ASC_NODE,ARG_OF_PERICENTER,MEAN_ANOMALY,EPHEMERIS_TYPE,CLASSIFICATION_TYPE,NORAD_CAT_ID,ELEMENT_SET_NO,REV_AT_EPOCH,BSTAR,MEAN_MOTION_DOT,MEAN_MOTION_DDOT
STARLINK-30930,2023-178M,2026-05-21T22:52:23.856960,15.34394562,.00013061,53.1615,19.6960,104.9911,255.1237,0,U,58385,999,14099,.52452447E-4,.1396E-4,0
STARLINK-30929,2023-178N,2026-05-21T23:01:34.834080,15.34393344,.00012873,53.1607,20.2374,89.0111,271.1039,0,U,58386,999,14109,.40851269E-4,.1004E-4,0
STARLINK-30898,2023-178P,2026-05-22T01:57:03.720384,15.34400151,.00013479,53.1616,19.6523,89.9751,270.1406,0,U,58387,999,14113,.3716553E-5,-.251E-5,0
STARLINK-30913,2023-178Q,2026-05-22T01:35:52.816128,15.34396860,.00010883,53.1595,19.6865,86.2029,273.9098,0,U,58388,999,14113,.16043875E-3,.5048E-4,0
STARLINK-30938,2023-178R,2026-05-22T01:48:37.952928,15.30196541,.00012549,53.1608,20.4453,80.4869,279.6273,0,U,58389,999,14112,.16496854E-4,.129E-5,0
STARLINK-30868,2023-178S,2026-05-22T01:26:48.011424,15.34374235,.00007162,53.1617,19.6462,93.6967,266.4118,0,U,58390,999,14113,.14407121E-3,.4491E-4,0
STARLINK-30916,2023-178T,2026-05-22T01:47:58.602048,15.34395578,.00010836,53.1607,19.6365,80.2510,279.8615,0,U,58391,999,14113,.33880661E-4,.769E-5,0
STARLINK-30939,2023-178V,2026-05-21T23:37:50.787840,15.34389729,.00012941,53.1619,19.8841,98.3091,261.8059,0,U,58393,999,14099,.19822618E-4,.293E-5,0
STARLINK-30887,2023-178W,2026-05-22T02:03:06.882048,15.34396509,.00011373,53.1610,19.6304,80.8967,279.2165,0,U,58394,999,14111,.17596645E-4,.218E-5,0
STARLINK-30934,2023-178X,2026-05-22T01:32:51.734688,15.34394432,.00012551,53.1615,19.7471,92.4481,267.6665,0,U,58395,999,14106,-.4143482E-5,-.516E-5,0
MALLIGYONG-1,2023-179A,2026-05-22T06:36:15.257376,15.22471188,.00101132,97.3049,24.5524,114.6979,245.5312,0,U,58400,999,13881,.99955175E-4,.2248E-4,0
STARLINK-30964,2023-180A,2026-05-22T07:08:15.855072,15.27589715,.00015447,43.0063,356.8234,267.9072,92.1603,0,U,58402,999,13888,-.6277059E-5,-.435E-5,0
STARLINK-30844,2023-180B,2026-05-21T22:18:29.312352,15.27574593,.00017687,43.0053,359.2304,258.4301,101.6352,0,U,58403,999,13870,.10861812E-4,.36E-6,0
STARLINK-30876,2023-180C,2026-05-21T22:12:55.951776,15.27578244,.0001885,43.0055,359.2001,269.2262,90.8373,0,U,58404,999,13882,.2651143E-5,-.189E-5,0
STARLINK-30952,2023-180D,2026-05-21T23:32:16.342944,15.27595358,.00008724,43.0032,358.7524,267.5894,92.4857,0,U,58405,999,13872,-.23747813E-3,-.6794E-4,0
STARLINK-30925,2023-180E,2026-05-21T22:01:49.871712,15.27577378,.0001587,43.0028,359.1455,292.6413,67.4270,0,U,58406,999,13870,-.20809597E-4,-.835E-5,0
STARLINK-30954,2023-180F,2026-05-22T06:59:01.167936,15.27572789,.00010733,43.0046,356.7755,277.0463,83.0267,0,U,58407,999,13888,-.16917676E-4,-.727E-5,0
STARLINK-30906,2023-180G,2026-05-21T22:39:56.302560,15.27580592,.00016219,43.0063,2.5795,274.2769,85.7898,0,U,58408,999,13867,.97738001E-4,.2428E-4,0
STARLINK-30940,2023-180H,2026-05-22T06:18:46.633536,15.27573673,.00015044,43.0014,211.9616,248.9021,111.1670,0,U,58409,999,14058,.10246869E-4,.2E-6,0
STARLINK-30933,2023-180J,2026-05-22T05:01:03.509760,15.27581338,.00012945,43.0013,211.5453,271.9132,88.1571,0,U,58410,999,14058,.11848196E-4,.64E-6,0
STARLINK-30919,2023-180K,2026-05-22T00:12:46.107072,15.27580174,.00014869,43.0031,358.0275,263.1575,96.9107,0,U,58411,999,13874,-.17538065E-4,-.745E-5,0
STARLINK-30924,2023-180L,2026-05-22T04:07:52.112352,15.41163976,.0004992,43.0019,204.3365,28.6050,331.5080,0,U,58412,999,14066,.31052875E-3,.12893E-3,0
STARLINK-30931,2023-180M,2026-05-22T06:59:02.108832,15.27591901,.0002865,43.0080,345.6340,270.9436,89.1088,0,U,58413,999,13901,.11574787E-3,.2925E-4,0
STARLINK-30922,2023-180N,2026-05-21T23:41:30.603264,15.27602050,.00010165,43.0033,358.7845,266.7582,93.3153,0,U,58414,999,13883,.13078468E-4,.98E-6,0
STARLINK-30949,2023-180P,2026-05-21T23:26:42.934848,15.27612055,.00012431,43.0025,358.6954,280.6345,79.4367,0,U,58415,999,13883,-.29935864E-3,-.8498E-4,0
STARLINK-30967,2023-180Q,2026-05-21T23:21:10.593792,15.27568111,.00014222,43.0026,358.6806,264.7702,95.2987,0,U,58416,999,13883,-.38962755E-3,-.10964E-3,0
STARLINK-30955,2023-180R,2026-05-22T00:09:05.061312,15.27575686,.00012197,43.0034,358.0717,262.7178,97.3535,0,U,58417,999,13884,.505367E-6,-.248E-5,0
STARLINK-30895,2023-180S,2026-05-22T07:02:44.498976,15.27565384,.00012946,43.0047,356.7964,268.9771,91.0933,0,U,58418,999,13877,-.20755167E-3,-.5966E-4,0
STARLINK-30917,2023-180T,2026-05-22T07:03:55.559520,15.27572982,.00018615,43.0044,248.0807,278.9819,81.0822,0,U,58419,999,14015,.9922035E-4,.2468E-4,0
STARLINK-30899,2023-180U,2026-05-22T06:36:48.023712,15.27608752,.00006708,43.0015,356.6628,262.6206,97.4569,0,U,58420,999,13876,-.22797442E-3,-.6535E-4,0
