STARLINK-30930          
1 58385U 23178M   26141.95305390  .00001396  00000+0  52452-4 0  9998
2 58385  53.1615  19.6960 0001306 104.9911 255.1237 15.34394562140998
STARLINK-30929          
1 58386U 23178N   26141.95943095  .00001004  00000+0  40851-4 0  9995
2 58386  53.1607  20.2374 0001287  89.0111 271.1039 15.34393344141097
STARLINK-30898          
1 58387U 23178P   26142.08129306 -.00000251  00000+0  37166-5 0  9992
2 58387  53.1616  19.6523 0001347  89.9751 270.1406 15.34400151141139
STARLINK-30913          
1 58388U 23178Q   26142.06658352  .00005048  00000+0  16044-3 0  9997
2 58388  53.1595  19.6865 0001088  86.2029 273.9098 15.34396860141134
STARLINK-30938          
1 58389U 23178R   26142.07543927  .00000129  00000+0  16497-4 0  9998
2 58389  53.1608  20.4453 0001254  80.4869 279.6273 15.30196541141123
STARLINK-30868          
1 58390U 23178S   26142.06027791  .00004491  00000+0  14407-3 0  9999
2 58390  53.1617  19.6462 0000716  93.6967 266.4118 15.34374235141137
STARLINK-30916          
1 58391U 23178T   26142.07498382  .00000769  00000+0  33881-4 0  9991
2 58391  53.1607  19.6365 0001083  80.2510 279.8615 15.34395578141136
STARLINK-30939          
1 58393U 23178V   26141.98461560  .00000293  00000+0  19823-4 0  9992
2 58393  53.1619  19.8841 0001294  98.3091 261.8059 15.34389729140997
STARLINK-30887          
1 58394U 23178W   26142.08549632  .00000218  00000+0  17597-4 0  9995
2 58394  53.1610  19.6304 0001137  80.8967 279.2165 15.34396509141115
STARLINK-30934          
1 58395U 23178X   26142.06448767 -.00000516  00000+0 -41435-5 0  9993
2 58395  53.1615  19.7471 0001255  92.4481 267.6665 15.34394432141061
MALLIGYONG-1            
1 58400U 23179A   26142.27517659  .00002248  00000+0  99955-4 0  9992
2 58400  97.3049  24.5524 0010113 114.6979 245.5312 15.22471188138818
STARLINK-30964          
1 58402U 23180A   26142.29740573 -.00000435  00000+0 -62771-5 0  9996
2 58402  43.0063 356.8234 0001544 267.9072  92.1603 15.27589715138884
STARLINK-30844          
1 58403U 23180B   26141.92950593  .00000036  00000+0  10862-4 0  9999
2 58403  43.0053 359.2304 0001768 258.4301 101.6352 15.27574593138703
STARLINK-30876          
1 58404U 23180C   26141.92564759 -.00000189  00000+0  26511-5 0  9994
2 58404  43.0055 359.2001 0001885 269.2262  90.8373 15.27578244138828
STARLINK-30952          
1 58405U 23180D   26141.98074471 -.00006794  00000+0 -23748-3 0  9994
2 58405  43.0032 358.7524 0000872 267.5894  92.4857 15.27595358138724
STARLINK-30925          
1 58406U 23180E   26141.91793833 -.00000835  00000+0 -20810-4 0  9996
2 58406  43.0028 359.1455 0001587 292.6413  67.4270 15.27577378138709
STARLINK-30954          
1 58407U 23180F   26142.29098574 -.00000727  00000+0 -16918-4 0  9993
2 58407  43.0046 356.7755 0001073 277.0463  83.0267 15.27572789138888
STARLINK-30906          
1 58408U 23180G   26141.94440165  .00002428  00000+0  97738-4 0  9999
2 58408  43.0063   2.5795 0001621 274.2769  85.7898 15.27580592138672
STARLINK-30940          
1 58409U 23180H   26142.26303974  .00000020  00000+0  10247-4 0  9998
2 58409  43.0014 211.9616 0001504 248.9021 111.1670 15.27573673140583
STARLINK-30933          
1 58410U 23180J   26142.20906840  .00000064  00000+0  11848-4 0  9991
2 58410  43.0013 211.5453 0001294 271.9132  88.1571 15.27581338140584
STARLINK-30919          
1 58411U 23180K   26142.00886698 -.00000745  00000+0 -17538-4 0  9998
2 58411  43.0031 358.0275 0001486 263.1575  96.9107 15.27580174138745
STARLINK-30924          
1 58412U 23180L   26142.17213093  .00012893  00000+0  31053-3 0  9992
2 58412  43.0019 204.3365 0004992  28.6050 331.5080 15.41163976140667
STARLINK-30931          
1 58413U 23180M   26142.29099663  .00002925  00000+0  11575-3 0  9993
2 58413  43.0080 345.6340 0002865 270.9436  89.1088 15.27591901139013
STARLINK-30922          
1 58414U 23180N   26141.98715976  .00000098  00000+0  13078-4 0  9991
2 58414  43.0033 358.7845 0001016 266.7582  93.3153 15.27602050138836
STARLINK-30949          
1 58415U 23180P   26141.97688582 -.00008498  00000+0 -29936-3 0  9996
2 58415  43.0025 358.6954 0001243 280.6345  79.4367 15.27612055138830
STARLINK-30967          
1 58416U 23180Q   26141.97303928 -.00010964  00000+0 -38963-3 0  9996
2 58416  43.0026 358.6806 0001422 264.7702  95.2987 15.27568111138834
STARLINK-30955          
1 58417U 23180R   26142.00630858 -.00000248  00000+0  50537-6 0  9994
2 58417  43.0034 358.0717 0001219 262.7178  97.3535 15.27575686138846
STARLINK-30895          
1 58418U 23180S   26142.29357059 -.00005966  00000+0 -20755-3 0  9994
2 58418  43.0047 356.7964 0001294 268.9771  91.0933 15.27565384138779
STARLINK-30917          
1 58419U 23180T   26142.29439305  .00002468  00000+0  99220-4 0  9996
2 58419  43.0044 248.0807 0001861 278.9819  81.0822 15.27572982140153
STARLINK-30899          
1 58420U 23180U   26142.27555583 -.00006535  00000+0 -22797-3 0  9998
2 58420  43.0015 356.6628 0000670 262.6206  97.4569 15.27608752138765
